<?xml version="1.0" encoding="UTF-8"?>
<kml xmlns="http://www.opengis.net/kml/2.2">
  <Document>
    <Placemark>
      <name>Fault Line 1</name>
      <LineString>
        <coordinates>36.7825,25.2142,0 36.756223,25.165661,0 36.728211,25.118677,0 36.696136,25.075946,0 36.666883,25.030192,0 36.653993,24.973942,0 36.665583,24.917255,0 36.683772,24.863318,0 36.698452,24.807732,0 36.7103,24.7512,0</coordinates>
      </LineString>
    </Placemark>
    <Placemark>
      <name>Fault Line 2</name>
      <LineString>
        <coordinates>36.5651,24.7343,0 36.560706,24.789723,0 36.556005,24.845117,0 36.549969,24.900305,0 36.5469,24.955869,0 36.550823,25.01135,0 36.563193,25.06488,0 36.5776,25.117623,0 36.5933,25.1698,0</coordinates>
      </LineString>
    </Placemark>
    <Placemark>
      <name>Fault Line 3</name>
      <LineString>
        <coordinates>36.5722,25.3647,0 36.601758,25.403798,0 36.631323,25.442903,0 36.664194,25.477683,0 36.69804,25.510994,0 36.728468,25.549108,0 36.755563,25.590968,0 36.7826,25.6328,0</coordinates>
      </LineString>
    </Placemark>
    <Placemark>
      <name>Fault Line 4</name>
      <LineString>
        <coordinates>36.4439,25.3824,0 36.471652,25.428074,0 36.500732,25.472468,0 36.532899,25.51345,0 36.564752,25.554828,0 36.596392,25.596474,0 36.629156,25.636767,0 36.66014,25.679208,0 36.690039,25.722857,0 36.719932,25.766529,0 36.742532,25.816576,0 36.767862,25.864558,0 36.794363,25.911562,0 36.8228,25.956785,0 36.846304,26.006245,0 36.867731,26.057172,0 36.8884,26.1085,0</coordinates>
      </LineString>
    </Placemark>
    <Placemark>
      <name>Fault Line 5</name>
      <LineString>
        <coordinates>36.8591,26.1644,0 36.882218,26.213765,0 36.905354,26.262929,0 36.926496,26.313491,0 36.942061,26.367141,0 36.949373,26.423485,0 36.968039,26.47558,0 36.986683,26.527701,0 37.010586,26.576354,0 37.035138,26.624513,0 37.0598,26.6726,0</coordinates>
      </LineString>
    </Placemark>
    <Placemark>
      <name>Fault Line 6</name>
      <LineString>
        <coordinates>36.7097,26.4195,0 36.691643,26.367208,0 36.673791,26.314818,0 36.656183,26.262314,0 36.637128,26.210613,0 36.617812,26.159073,0 36.59559,26.1094,0 36.573575,26.059598,0 36.553615,26.008484,0 36.533719,25.957345,0 36.509097,25.909514,0 36.484078,25.862017,0 36.459185,25.814432,0 36.431659,25.769161,0 36.399774,25.728568,0 36.375683,25.680401,0 36.3525,25.6314,0</coordinates>
      </LineString>
    </Placemark>
    <Placemark>
      <name>Fault Line 7</name>
      <LineString>
        <coordinates>36.3092,24.4318,0 36.3092,24.487891,0 36.305378,24.543778,0 36.297027,24.598896,0 36.279272,24.650464,0 36.260902,24.701688,0 36.242013,24.752606,0 36.226995,24.805458,0 36.215596,24.859673,0 36.204556,24.913995,0 36.194131,24.968495,0 36.186276,25.023649,0 36.181836,25.079378,0 36.177402,25.135104,0 36.1748,25.191005,0 36.178647,25.246797,0 36.189592,25.301132,0 36.200978,25.355333,0 36.213364,25.409206,0 36.226237,25.462911,0 36.242212,25.515329,0 36.257374,25.568128,0 36.2686,25.6223,0</coordinates>
      </LineString>
    </Placemark>
    <Placemark>
      <name>Fault Line 8</name>
      <LineString>
        <coordinates>36.3814,26.5133,0 36.370585,26.461122,0 36.357639,26.409706,0 36.338224,26.361541,0 36.322497,26.311356,0 36.310907,26.259475,0 36.299823,26.207431,0 36.292931,26.15429,0 36.288003,26.100818,0 36.283681,26.047269,0 36.2823,25.9934,0</coordinates>
      </LineString>
    </Placemark>
    <Placemark>
      <name>Fault Line 9</name>
      <LineString>
        <coordinates>36.1932,26.5088,0 36.184894,26.452548,0 36.174829,26.396834,0 36.160205,26.342701,0 36.142048,26.290246,0 36.120037,26.240119,0 36.103452,26.186897,0 36.088143,26.133105,0 36.072806,26.079336,0 36.060927,26.024251,0 36.053727,25.967946,0 36.049291,25.911212,0 36.0447,25.8545,0</coordinates>
      </LineString>
    </Placemark>
  </Document>
</kml>
