<?xml version="1.0" encoding="UTF-8"?>
<kml xmlns="http://www.opengis.net/kml/2.2">
  <Document>
    <Placemark>
      <name>Custom Polygon</name>
      <Polygon>
        <outerBoundaryIs>
          <LinearRing>
            <coordinates>
              24.7192,35.9691,0
              24.7192,37.2872,0
              26.4331,37.2872,0
              26.4331,35.9691,0
              24.7192,35.9691,0
            </coordinates>
          </LinearRing>
        </outerBoundaryIs>
      </Polygon>
    </Placemark>
  </Document>
</kml>
